{
  "type": "FeatureCollection",
  "features": [

    {
      "type": "Feature",
      "properties": {
        "name": "Islamabad",
        "province": "Islamabad Capital Territory",
        "type": "Capital"
      },
      "geometry": {
        "type": "Point",
        "coordinates": [73.0479, 33.6844]
      }
    },

    {
      "type": "Feature",
      "properties": {
        "name": "Lahore",
        "province": "Punjab",
        "type": "Major City"
      },
      "geometry": {
        "type": "Point",
        "coordinates": [74.3587, 31.5204]
      }
    },

    {
      "type": "Feature",
      "properties": {
        "name": "Karachi",
        "province": "Sindh",
        "type": "Major City"
      },
      "geometry": {
        "type": "Point",
        "coordinates": [67.0011, 24.8607]
      }
    },

    {
      "type": "Feature",
      "properties": {
        "name": "Peshawar",
        "province": "Khyber Pakhtunkhwa",
        "type": "Major City"
      },
      "geometry": {
        "type": "Point",
        "coordinates": [71.5249, 34.0151]
      }
    },

    {
      "type": "Feature",
      "properties": {
        "name": "Quetta",
        "province": "Balochistan",
        "type": "Major City"
      },
      "geometry": {
        "type": "Point",
        "coordinates": [66.9750, 30.1798]
      }
    },

    {
      "type": "Feature",
      "properties": {
        "name": "Rawalpindi",
        "province": "Punjab",
        "type": "Major City"
      },
      "geometry": {
        "type": "Point",
        "coordinates": [73.0479, 33.5651]
      }
    },

    {
      "type": "Feature",
      "properties": {
        "name": "Faisalabad",
        "province": "Punjab",
        "type": "Major City"
      },
      "geometry": {
        "type": "Point",
        "coordinates": [73.1350, 31.4504]
      }
    },

    {
      "type": "Feature",
      "properties": {
        "name": "Multan",
        "province": "Punjab",
        "type": "Major City"
      },
      "geometry": {
        "type": "Point",
        "coordinates": [71.5249, 30.1575]
      }
    },

    {
      "type": "Feature",
      "properties": {
        "name": "Gujranwala",
        "province": "Punjab",
        "type": "Major City"
      },
      "geometry": {
        "type": "Point",
        "coordinates": [74.1871, 32.1877]
      }
    },

    {
      "type": "Feature",
      "properties": {
        "name": "Sialkot",
        "province": "Punjab",
        "type": "Major City"
      },
      "geometry": {
        "type": "Point",
        "coordinates": [74.5437, 32.4945]
      }
    },

    {
      "type": "Feature",
      "properties": {
        "name": "Bahawalpur",
        "province": "Punjab",
        "type": "Major City"
      },
      "geometry": {
        "type": "Point",
        "coordinates": [71.6833, 29.3956]
      }
    },

    {
      "type": "Feature",
      "properties": {
        "name": "Sargodha",
        "province": "Punjab",
        "type": "Major City"
      },
      "geometry": {
        "type": "Point",
        "coordinates": [72.6711, 32.0836]
      }
    },

    {
      "type": "Feature",
      "properties": {
        "name": "Abbottabad",
        "province": "Khyber Pakhtunkhwa",
        "type": "City"
      },
      "geometry": {
        "type": "Point",
        "coordinates": [73.2215, 34.1688]
      }
    },

    {
      "type": "Feature",
      "properties": {
        "name": "Mardan",
        "province": "Khyber Pakhtunkhwa",
        "type": "City"
      },
      "geometry": {
        "type": "Point",
        "coordinates": [72.0447, 34.1980]
      }
    },

    {
      "type": "Feature",
      "properties": {
        "name": "Hyderabad",
        "province": "Sindh",
        "type": "Major City"
      },
      "geometry": {
        "type": "Point",
        "coordinates": [68.3737, 25.3960]
      }
    }

  ]
}