{
  "type": "FeatureCollection",
  "features": [

    {
      "type": "Feature",
      "properties": {
        "station": "Islamabad",
        "temperature": 28,
        "rainfall": 12
      },
      "geometry": {
        "type": "Point",
        "coordinates": [73.0479, 33.6844]
      }
    },

    {
      "type": "Feature",
      "properties": {
        "station": "Lahore",
        "temperature": 31,
        "rainfall": 5
      },
      "geometry": {
        "type": "Point",
        "coordinates": [74.3587, 31.5204]
      }
    },

    {
      "type": "Feature",
      "properties": {
        "station": "Karachi",
        "temperature": 30,
        "rainfall": 12
      },
      "geometry": {
        "type": "Point",
        "coordinates": [67.0011, 24.8607]
      }
    },

    {
      "type": "Feature",
      "properties": {
        "station": "Peshawar",
        "temperature": 29,
        "rainfall": 7
      },
      "geometry": {
        "type": "Point",
        "coordinates": [71.5249, 34.0151]
      }
    },

    {
      "type": "Feature",
      "properties": {
        "station": "Quetta",
        "temperature": 27,
        "rainfall": 3
      },
      "geometry": {
        "type": "Point",
        "coordinates": [66.9750, 30.1798]
      }
    },

    {
      "type": "Feature",
      "properties": {
        "station": "Rawalpindi",
        "temperature": 28,
        "rainfall": 15
      },
      "geometry": {
        "type": "Point",
        "coordinates": [73.0479, 33.5651]
      }
    },

    {
      "type": "Feature",
      "properties": {
        "station": "Faisalabad",
        "temperature": 32,
        "rainfall": 4
      },
      "geometry": {
        "type": "Point",
        "coordinates": [73.1350, 31.4504]
      }
    },

    {
      "type": "Feature",
      "properties": {
        "station": "Multan",
        "temperature": 34,
        "rainfall": 2
      },
      "geometry": {
        "type": "Point",
        "coordinates": [71.5249, 30.1575]
      }
    },

    {
      "type": "Feature",
      "properties": {
        "station": "Gujranwala",
        "temperature": 30,
        "rainfall": 8
      },
      "geometry": {
        "type": "Point",
        "coordinates": [74.1871, 32.1877]
      }
    },

    {
      "type": "Feature",
      "properties": {
        "station": "Sialkot",
        "temperature": 29,
        "rainfall": 10
      },
      "geometry": {
        "type": "Point",
        "coordinates": [74.5437, 32.4945]
      }
    },

    {
      "type": "Feature",
      "properties": {
        "station": "Bahawalpur",
        "temperature": 35,
        "rainfall": 2
      },
      "geometry": {
        "type": "Point",
        "coordinates": [71.6833, 29.3956]
      }
    },

    {
      "type": "Feature",
      "properties": {
        "station": "Sargodha",
        "temperature": 32,
        "rainfall": 6
      },
      "geometry": {
        "type": "Point",
        "coordinates": [72.6711, 32.0836]
      }
    },

    {
      "type": "Feature",
      "properties": {
        "station": "Abbottabad",
        "temperature": 24,
        "rainfall": 20
      },
      "geometry": {
        "type": "Point",
        "coordinates": [73.2215, 34.1688]
      }
    },

    {
      "type": "Feature",
      "properties": {
        "station": "Mardan",
        "temperature": 30,
        "rainfall": 9
      },
      "geometry": {
        "type": "Point",
        "coordinates": [72.0447, 34.1980]
      }
    },

    {
      "type": "Feature",
      "properties": {
        "station": "Hyderabad",
        "temperature": 33,
        "rainfall": 3
      },
      "geometry": {
        "type": "Point",
        "coordinates": [68.3737, 25.3960]
      }
    }

  ]
}